[{"OBJECT_NAME":"STARLINK-34710","OBJECT_ID":"2025-190Q","EPOCH":"2025-11-26T13:52:22.430496","MEAN_MOTION":15.30212535,"ECCENTRICITY":0.00024199,"INCLINATION":53.1592,"RA_OF_ASC_NODE":287.4571,"ARG_OF_PERICENTER":75.1999,"MEAN_ANOMALY":284.9269,"EPHEMERIS_TYPE":0,"CLASSIFICATION_TYPE":"U","NORAD_CAT_ID":65365,"ELEMENT_SET_NO":999,"REV_AT_EPOCH":1349,"BSTAR":0.0011511055,"MEAN_MOTION_DOT":0.00033903,"MEAN_MOTION_DDOT":0},{"OBJECT_NAME":"STARLINK-34943","OBJECT_ID":"2025-190R","EPOCH":"2025-11-27T06:53:15.627552","MEAN_MOTION":15.30233253,"ECCENTRICITY":0.00013982,"INCLINATION":53.1589,"RA_OF_ASC_NODE":284.06,"ARG_OF_PERICENTER":194.6848,"MEAN_ANOMALY":165.4113,"EPHEMERIS_TYPE":0,"CLASSIFICATION_TYPE":"U","NORAD_CAT_ID":65366,"ELEMENT_SET_NO":999,"REV_AT_EPOCH":1360,"BSTAR":0.0013579404,"MEAN_MOTION_DOT":0.00040118,"MEAN_MOTION_DDOT":0},{"OBJECT_NAME":"STARLINK-34946","OBJECT_ID":"2025-190S","EPOCH":"2025-11-27T06:35:02.838624","MEAN_MOTION":15.30218812,"ECCENTRICITY":0.00030818,"INCLINATION":53.1608,"RA_OF_ASC_NODE":283.976,"ARG_OF_PERICENTER":95.103,"MEAN_ANOMALY":265.0323,"EPHEMERIS_TYPE":0,"CLASSIFICATION_TYPE":"U","NORAD_CAT_ID":65367,"ELEMENT_SET_NO":999,"REV_AT_EPOCH":1407,"BSTAR":0.0014964053,"MEAN_MOTION_DOT":0.00044253,"MEAN_MOTION_DDOT":0},{"OBJECT_NAME":"STARLINK-34259","OBJECT_ID":"2025-190T","EPOCH":"2025-11-27T06:38:04.978464","MEAN_MOTION":15.30214017,"ECCENTRICITY":0.0001419,"INCLINATION":53.1607,"RA_OF_ASC_NODE":283.9937,"ARG_OF_PERICENTER":89.1204,"MEAN_ANOMALY":270.9959,"EPHEMERIS_TYPE":0,"CLASSIFICATION_TYPE":"U","NORAD_CAT_ID":65368,"ELEMENT_SET_NO":999,"REV_AT_EPOCH":1407,"BSTAR":0.0012323655,"MEAN_MOTION_DOT":0.00036334,"MEAN_MOTION_DDOT":0},{"OBJECT_NAME":"STARLINK-34913","OBJECT_ID":"2025-190U","EPOCH":"2025-11-26T14:48:26.043840","MEAN_MOTION":15.30218691,"ECCENTRICITY":0.00017481,"INCLINATION":53.1608,"RA_OF_ASC_NODE":286.9878,"ARG_OF_PERICENTER":75.9244,"MEAN_ANOMALY":284.1951,"EPHEMERIS_TYPE":0,"CLASSIFICATION_TYPE":"U","NORAD_CAT_ID":65369,"ELEMENT_SET_NO":999,"REV_AT_EPOCH":1397,"BSTAR":0.0012313715,"MEAN_MOTION_DOT":0.0003631,"MEAN_MOTION_DDOT":0},{"OBJECT_NAME":"STARLINK-34870","OBJECT_ID":"2025-190V","EPOCH":"2025-11-27T06:16:48.040032","MEAN_MOTION":15.30209911,"ECCENTRICITY":9.828e-5,"INCLINATION":53.1617,"RA_OF_ASC_NODE":283.9047,"ARG_OF_PERICENTER":122.1125,"MEAN_ANOMALY":237.9972,"EPHEMERIS_TYPE":0,"CLASSIFICATION_TYPE":"U","NORAD_CAT_ID":65370,"ELEMENT_SET_NO":999,"REV_AT_EPOCH":1360,"BSTAR":0.0010034906,"MEAN_MOTION_DOT":0.00029488,"MEAN_MOTION_DDOT":0},{"OBJECT_NAME":"STARLINK-34869","OBJECT_ID":"2025-190W","EPOCH":"2025-11-27T06:19:50.750112","MEAN_MOTION":15.30210632,"ECCENTRICITY":8.731e-5,"INCLINATION":53.161,"RA_OF_ASC_NODE":283.914,"ARG_OF_PERICENTER":83.5733,"MEAN_ANOMALY":276.5368,"EPHEMERIS_TYPE":0,"CLASSIFICATION_TYPE":"U","NORAD_CAT_ID":65371,"ELEMENT_SET_NO":999,"REV_AT_EPOCH":1407,"BSTAR":0.0011435836,"MEAN_MOTION_DOT":0.00033675,"MEAN_MOTION_DDOT":0},{"OBJECT_NAME":"STARLINK-34903","OBJECT_ID":"2025-190X","EPOCH":"2025-11-27T06:01:36.106176","MEAN_MOTION":15.30238474,"ECCENTRICITY":6.623e-5,"INCLINATION":53.1596,"RA_OF_ASC_NODE":283.8304,"ARG_OF_PERICENTER":89.8404,"MEAN_ANOMALY":270.2672,"EPHEMERIS_TYPE":0,"CLASSIFICATION_TYPE":"U","NORAD_CAT_ID":65372,"ELEMENT_SET_NO":999,"REV_AT_EPOCH":1407,"BSTAR":0.0011241267,"MEAN_MOTION_DOT":0.00033122,"MEAN_MOTION_DDOT":0},{"OBJECT_NAME":"STARLINK-34891","OBJECT_ID":"2025-190Y","EPOCH":"2025-11-26T07:31:35.557536","MEAN_MOTION":15.30210684,"ECCENTRICITY":0.00014437,"INCLINATION":53.1601,"RA_OF_ASC_NODE":288.6385,"ARG_OF_PERICENTER":84.1078,"MEAN_ANOMALY":276.0088,"EPHEMERIS_TYPE":0,"CLASSIFICATION_TYPE":"U","NORAD_CAT_ID":65373,"ELEMENT_SET_NO":999,"REV_AT_EPOCH":1340,"BSTAR":0.0011825284,"MEAN_MOTION_DOT":0.0003484,"MEAN_MOTION_DDOT":0},{"OBJECT_NAME":"STARLINK-34900","OBJECT_ID":"2025-190Z","EPOCH":"2025-11-27T06:06:09.974304","MEAN_MOTION":15.30214371,"ECCENTRICITY":9.073e-5,"INCLINATION":53.1604,"RA_OF_ASC_NODE":283.85,"ARG_OF_PERICENTER":129.5899,"MEAN_ANOMALY":230.5182,"EPHEMERIS_TYPE":0,"CLASSIFICATION_TYPE":"U","NORAD_CAT_ID":65374,"ELEMENT_SET_NO":999,"REV_AT_EPOCH":1355,"BSTAR":0.00088689236,"MEAN_MOTION_DOT":0.00026012,"MEAN_MOTION_DDOT":0},{"OBJECT_NAME":"STARLINK-34305","OBJECT_ID":"2025-190AA","EPOCH":"2025-11-27T06:03:07.592544","MEAN_MOTION":15.30218505,"ECCENTRICITY":0.00010725,"INCLINATION":53.1595,"RA_OF_ASC_NODE":283.8345,"ARG_OF_PERICENTER":93.0095,"MEAN_ANOMALY":267.1029,"EPHEMERIS_TYPE":0,"CLASSIFICATION_TYPE":"U","NORAD_CAT_ID":65375,"ELEMENT_SET_NO":999,"REV_AT_EPOCH":1407,"BSTAR":0.0014774345,"MEAN_MOTION_DOT":0.00043681,"MEAN_MOTION_DDOT":0},{"OBJECT_NAME":"STARLINK-34249","OBJECT_ID":"2025-190AB","EPOCH":"2025-11-26T07:17:54.598560","MEAN_MOTION":15.30184035,"ECCENTRICITY":0.00011827,"INCLINATION":53.1601,"RA_OF_ASC_NODE":288.5793,"ARG_OF_PERICENTER":71.1098,"MEAN_ANOMALY":289.0031,"EPHEMERIS_TYPE":0,"CLASSIFICATION_TYPE":"U","NORAD_CAT_ID":65376,"ELEMENT_SET_NO":999,"REV_AT_EPOCH":1434,"BSTAR":0.001214507,"MEAN_MOTION_DOT":0.00035766,"MEAN_MOTION_DDOT":0},{"OBJECT_NAME":"STARLINK-34879","OBJECT_ID":"2025-190AC","EPOCH":"2025-11-27T05:50:58.237440","MEAN_MOTION":15.30217646,"ECCENTRICITY":0.00012197,"INCLINATION":53.1606,"RA_OF_ASC_NODE":283.7757,"ARG_OF_PERICENTER":107.6395,"MEAN_ANOMALY":252.4739,"EPHEMERIS_TYPE":0,"CLASSIFICATION_TYPE":"U","NORAD_CAT_ID":65377,"ELEMENT_SET_NO":999,"REV_AT_EPOCH":1407,"BSTAR":0.00095737492,"MEAN_MOTION_DOT":0.00028118,"MEAN_MOTION_DDOT":0},{"OBJECT_NAME":"STARLINK-34912","OBJECT_ID":"2025-190AD","EPOCH":"2025-11-27T07:15:54.477504","MEAN_MOTION":15.30204126,"ECCENTRICITY":0.00010165,"INCLINATION":53.1588,"RA_OF_ASC_NODE":283.4376,"ARG_OF_PERICENTER":98.3679,"MEAN_ANOMALY":261.7437,"EPHEMERIS_TYPE":0,"CLASSIFICATION_TYPE":"U","NORAD_CAT_ID":65378,"ELEMENT_SET_NO":999,"REV_AT_EPOCH":1408,"BSTAR":0.00098576384,"MEAN_MOTION_DOT":0.00028954,"MEAN_MOTION_DDOT":0},{"OBJECT_NAME":"STARLINK-34985","OBJECT_ID":"2025-191A","EPOCH":"2025-11-27T04:39:44.413920","MEAN_MOTION":15.05651679,"ECCENTRICITY":0.00023131,"INCLINATION":97.6052,"RA_OF_ASC_NODE":200.4484,"ARG_OF_PERICENTER":70.5645,"MEAN_ANOMALY":289.5831,"EPHEMERIS_TYPE":0,"CLASSIFICATION_TYPE":"U","NORAD_CAT_ID":65379,"ELEMENT_SET_NO":999,"REV_AT_EPOCH":1484,"BSTAR":-8.8732169e-5,"MEAN_MOTION_DOT":-1.341e-5,"MEAN_MOTION_DDOT":0},{"OBJECT_NAME":"STARLINK-35051","OBJECT_ID":"2025-191B","EPOCH":"2025-11-27T05:23:36.889728","MEAN_MOTION":15.05651047,"ECCENTRICITY":0.00025277,"INCLINATION":97.6019,"RA_OF_ASC_NODE":200.5627,"ARG_OF_PERICENTER":85.103,"MEAN_ANOMALY":275.0486,"EPHEMERIS_TYPE":0,"CLASSIFICATION_TYPE":"U","NORAD_CAT_ID":65380,"ELEMENT_SET_NO":999,"REV_AT_EPOCH":1486,"BSTAR":0.00024339091,"MEAN_MOTION_DOT":3.453e-5,"MEAN_MOTION_DDOT":0},{"OBJECT_NAME":"STARLINK-35028","OBJECT_ID":"2025-191C","EPOCH":"2025-11-27T04:59:41.556768","MEAN_MOTION":15.05654295,"ECCENTRICITY":0.00024359,"INCLINATION":97.6024,"RA_OF_ASC_NODE":200.5854,"ARG_OF_PERICENTER":85.9606,"MEAN_ANOMALY":274.1899,"EPHEMERIS_TYPE":0,"CLASSIFICATION_TYPE":"U","NORAD_CAT_ID":65381,"ELEMENT_SET_NO":999,"REV_AT_EPOCH":1485,"BSTAR":0.00027304504,"MEAN_MOTION_DOT":3.882e-5,"MEAN_MOTION_DDOT":0},{"OBJECT_NAME":"STARLINK-35032","OBJECT_ID":"2025-191D","EPOCH":"2025-11-27T07:27:13.449312","MEAN_MOTION":15.05648281,"ECCENTRICITY":0.00022779,"INCLINATION":97.603,"RA_OF_ASC_NODE":200.6015,"ARG_OF_PERICENTER":89.4141,"MEAN_ANOMALY":270.7347,"EPHEMERIS_TYPE":0,"CLASSIFICATION_TYPE":"U","NORAD_CAT_ID":65382,"ELEMENT_SET_NO":999,"REV_AT_EPOCH":1486,"BSTAR":0.00021383102,"MEAN_MOTION_DOT":3.026e-5,"MEAN_MOTION_DDOT":0},{"OBJECT_NAME":"STARLINK-35054","OBJECT_ID":"2025-191E","EPOCH":"2025-11-27T04:51:41.999616","MEAN_MOTION":15.05650361,"ECCENTRICITY":0.00021805,"INCLINATION":97.6022,"RA_OF_ASC_NODE":200.4385,"ARG_OF_PERICENTER":86.2835,"MEAN_ANOMALY":273.8641,"EPHEMERIS_TYPE":0,"CLASSIFICATION_TYPE":"U","NORAD_CAT_ID":65383,"ELEMENT_SET_NO":999,"REV_AT_EPOCH":1484,"BSTAR":0.00020599906,"MEAN_MOTION_DOT":2.913e-5,"MEAN_MOTION_DDOT":0},{"OBJECT_NAME":"STARLINK-35012","OBJECT_ID":"2025-191F","EPOCH":"2025-11-27T04:27:47.019168","MEAN_MOTION":15.05651757,"ECCENTRICITY":0.00026795,"INCLINATION":97.603,"RA_OF_ASC_NODE":200.4577,"ARG_OF_PERICENTER":75.1088,"MEAN_ANOMALY":285.0435,"EPHEMERIS_TYPE":0,"CLASSIFICATION_TYPE":"U","NORAD_CAT_ID":65384,"ELEMENT_SET_NO":999,"REV_AT_EPOCH":1484,"BSTAR":0.00029323537,"MEAN_MOTION_DOT":4.173e-5,"MEAN_MOTION_DDOT":0},{"OBJECT_NAME":"STARLINK-35073","OBJECT_ID":"2025-191G","EPOCH":"2025-11-27T02:28:09.830784","MEAN_MOTION":15.05652402,"ECCENTRICITY":0.0003463,"INCLINATION":97.6017,"RA_OF_ASC_NODE":200.4156,"ARG_OF_PERICENTER":83.2634,"MEAN_ANOMALY":276.8987,"EPHEMERIS_TYPE":0,"CLASSIFICATION_TYPE":"U","NORAD_CAT_ID":65385,"ELEMENT_SET_NO":999,"REV_AT_EPOCH":1483,"BSTAR":0.00058783088,"MEAN_MOTION_DOT":8.432e-5,"MEAN_MOTION_DDOT":0},{"OBJECT_NAME":"STARLINK-35066","OBJECT_ID":"2025-191H","EPOCH":"2025-11-27T05:11:39.033600","MEAN_MOTION":15.05652652,"ECCENTRICITY":0.00020321,"INCLINATION":97.6024,"RA_OF_ASC_NODE":200.575,"ARG_OF_PERICENTER":87.2694,"MEAN_ANOMALY":272.8765,"EPHEMERIS_TYPE":0,"CLASSIFICATION_TYPE":"U","NORAD_CAT_ID":65386,"ELEMENT_SET_NO":999,"REV_AT_EPOCH":1485,"BSTAR":0.00019999661,"MEAN_MOTION_DOT":2.826e-5,"MEAN_MOTION_DDOT":0},{"OBJECT_NAME":"STARLINK-34703","OBJECT_ID":"2025-191J","EPOCH":"2025-11-27T05:31:34.627296","MEAN_MOTION":15.05670195,"ECCENTRICITY":0.00030687,"INCLINATION":97.6036,"RA_OF_ASC_NODE":200.5557,"ARG_OF_PERICENTER":77.0231,"MEAN_ANOMALY":283.1338,"EPHEMERIS_TYPE":0,"CLASSIFICATION_TYPE":"U","NORAD_CAT_ID":65387,"ELEMENT_SET_NO":999,"REV_AT_EPOCH":1485,"BSTAR":0.00068900774,"MEAN_MOTION_DOT":9.901e-5,"MEAN_MOTION_DDOT":0}]
